ONEWEB-0661             
1 55821U 23029AB  23250.20294527  .00005186  00000+0  11466-1 0  9998
2 55821  87.9548 131.5763 0001424 136.2495 223.8755 13.27700006 26164
ONEWEB-0662             
1 55822U 23029AC  23251.25002315 -.00041204  00000+0 -92023-1 0  9998
2 55822  87.9543 131.3738 0001545 101.4174 240.6207 13.27566473 27058
ONEWEB-0663             
1 55823U 23029AD  23251.25002315 -.01132570  00000+0 -46495+0 0  9997
2 55823  86.9724 119.9050 0002281 112.8181 248.8851 14.30304522 27808
ONEWEB-0664             
1 55824U 23029AE  23250.91667824 -.01093778  00000+0 -44201+0 0  9991
2 55824  86.9738 120.0040 0002017  98.0952 262.2711 14.31005024 27759
ONEWEB-0665             
1 55825U 23029AF  23250.75731630  .00000042  00000+0  64553-4 0  9997
2 55825  87.9518 131.4449 0003010 101.7925 258.3550 13.27823239 26253
ONEWEB-0666             
1 55826U 23029AG  23250.91667824 -.01100403  00000+0 -44012+0 0  9997
2 55826  86.9654 120.0423 0004073  81.1858  12.1361 14.31549536 27759
ONEWEB-0667             
1 55827U 23029AH  23250.91667824 -.01034844  00000+0 -43875+0 0  9999
2 55827  86.9815 120.0913 0002243 101.3647 168.8111 14.28880117 27752
ONEWEB-0669             
1 55828U 23029AJ  23250.91667824 -.01048826  00000+0 -42016+0 0  9991
2 55828  86.9711 120.0066 0003279 100.5488 341.1741 14.31845682 27758
